[{"OBJECT_NAME":"AFR-1","OBJECT_ID":"2023-084AJ","EPOCH":"2026-03-09T23:02:07.499328","MEAN_MOTION":15.27543824,"ECCENTRICITY":0.00099838,"INCLINATION":97.6099,"RA_OF_ASC_NODE":203.4313,"ARG_OF_PERICENTER":334.9676,"MEAN_ANOMALY":25.1077,"EPHEMERIS_TYPE":0,"CLASSIFICATION_TYPE":"U","NORAD_CAT_ID":56964,"ELEMENT_SET_NO":999,"REV_AT_EPOCH":15207,"BSTAR":0.00024843733,"MEAN_MOTION_DOT":6.624e-5,"MEAN_MOTION_DDOT":0},{"OBJECT_NAME":"STARLINK-31758","OBJECT_ID":"2024-080W","EPOCH":"2026-03-09T06:37:05.994048","MEAN_MOTION":15.27557412,"ECCENTRICITY":0.0002114,"INCLINATION":43.002,"RA_OF_ASC_NODE":36.4146,"ARG_OF_PERICENTER":253.3601,"MEAN_ANOMALY":106.7019,"EPHEMERIS_TYPE":0,"CLASSIFICATION_TYPE":"U","NORAD_CAT_ID":59621,"ELEMENT_SET_NO":999,"REV_AT_EPOCH":10451,"BSTAR":0.00019416381,"MEAN_MOTION_DOT":5.081e-5,"MEAN_MOTION_DDOT":0}]
